{
    "links": {
        "self": "http://www.neowsapp.com/rest/v1/neo/3278002?api_key=iIulBulltgU6a56xZRHN4H3l9WmuAYTsLGpBGhQ2"
    },
    "id": "3278002",
    "neo_reference_id": "3278002",
    "name": "(2005 JF46)",
    "designation": "2005 JF46",
    "nasa_jpl_url": "http://ssd.jpl.nasa.gov/sbdb.cgi?sstr=3278002",
    "absolute_magnitude_h": 19.0,
    "estimated_diameter": {
        "kilometers": {
            "estimated_diameter_min": 0.4212646106,
            "estimated_diameter_max": 0.9419763057
        },
        "meters": {
            "estimated_diameter_min": 421.2646105562,
            "estimated_diameter_max": 941.9763057186
        },
        "miles": {
            "estimated_diameter_min": 0.2617616123,
            "estimated_diameter_max": 0.5853167591
        },
        "feet": {
            "estimated_diameter_min": 1382.1017848971,
            "estimated_diameter_max": 3090.4735428537
        }
    },
    "is_potentially_hazardous_asteroid": false,
    "close_approach_data": [
        {
            "close_approach_date": "1989-08-27",
            "close_approach_date_full": "1989-Aug-27 09:55",
            "epoch_date_close_approach": 620214900000,
            "relative_velocity": {
                "kilometers_per_second": "7.9069250865",
                "kilometers_per_hour": "28464.9303115521",
                "miles_per_hour": "17687.0007260863"
            },
            "miss_distance": {
                "astronomical": "1.0992173139",
                "lunar": "427.5955351071",
                "kilometers": "164440568.826561393",
                "miles": "102178631.3827295034"
            },
            "orbiting_body": "Juptr"
        },
        {
            "close_approach_date": "2005-06-16",
            "close_approach_date_full": "2005-Jun-16 19:17",
            "epoch_date_close_approach": 1118949420000,
            "relative_velocity": {
                "kilometers_per_second": "19.3116922021",
                "kilometers_per_hour": "69522.0919275434",
                "miles_per_hour": "43198.3242868672"
            },
            "miss_distance": {
                "astronomical": "0.2782505287",
                "lunar": "108.2394556643",
                "kilometers": "41625686.419893869",
                "miles": "25865002.1652346322"
            },
            "orbiting_body": "Earth"
        },
        {
            "close_approach_date": "2025-01-30",
            "close_approach_date_full": "2025-Jan-30 19:52",
            "epoch_date_close_approach": 1738266720000,
            "relative_velocity": {
                "kilometers_per_second": "7.6681850657",
                "kilometers_per_hour": "27605.466236343",
                "miles_per_hour": "17152.9631733544"
            },
            "miss_distance": {
                "astronomical": "1.2067772078",
                "lunar": "469.4363338342",
                "kilometers": "180531299.851427386",
                "miles": "112176948.0134784868"
            },
            "orbiting_body": "Juptr"
        },
        {
            "close_approach_date": "2060-06-23",
            "close_approach_date_full": "2060-Jun-23 16:30",
            "epoch_date_close_approach": 2855233800000,
            "relative_velocity": {
                "kilometers_per_second": "8.3852032534",
                "kilometers_per_hour": "30186.731712313",
                "miles_per_hour": "18756.8611575758"
            },
            "miss_distance": {
                "astronomical": "1.7799802531",
                "lunar": "692.4123184559",
                "kilometers": "266281254.505820897",
                "miles": "165459499.0909944986"
            },
            "orbiting_body": "Juptr"
        },
        {
            "close_approach_date": "2146-06-12",
            "close_approach_date_full": "2146-Jun-12 17:21",
            "epoch_date_close_approach": 5568110460000,
            "relative_velocity": {
                "kilometers_per_second": "20.0835546513",
                "kilometers_per_hour": "72300.7967445209",
                "miles_per_hour": "44924.9033993941"
            },
            "miss_distance": {
                "astronomical": "0.2245544004",
                "lunar": "87.3516617556",
                "kilometers": "33592859.998967148",
                "miles": "20873635.2800287224"
            },
            "orbiting_body": "Earth"
        }
    ],
    "orbital_data": {
        "orbit_id": "23",
        "orbit_determination_date": "2017-04-06 09:11:00",
        "first_observation_date": "2005-05-10",
        "last_observation_date": "2005-07-05",
        "data_arc_in_days": 56,
        "observations_used": 104,
        "orbit_uncertainty": "6",
        "minimum_orbit_intersection": ".247797",
        "jupiter_tisserand_invariant": "2.915",
        "epoch_osculation": "2459000.5",
        "eccentricity": ".5366339005860333",
        "semi_major_axis": "2.691925179359461",
        "inclination": "36.02891334299279",
        "ascending_node_longitude": "80.52193414285013",
        "orbital_period": "1613.217423598911",
        "perihelion_distance": "1.247346870274036",
        "perihelion_argument": "197.3049632072009",
        "aphelion_distance": "4.136503488444886",
        "perihelion_time": "2458400.042098834327",
        "mean_anomaly": "133.9961007471654",
        "mean_motion": ".2231565285210467",
        "equinox": "J2000",
        "orbit_class": {
            "orbit_class_type": "AMO",
            "orbit_class_description": "Near-Earth asteroid orbits similar to that of 1221 Amor",
            "orbit_class_range": "1.017 AU < q (perihelion) < 1.3 AU"
        }
    },
    "is_sentry_object": false
}